start=new Date('2022-10-09T00:00:00.000Z').valueOf();
sats=[{"INCLINATION":"53.0546","DECAY_DATE":null,"OBJECT_TYPE":"PAYLOAD","COUNTRY_CODE":"US","MEAN_MOTION_DOT":"0.00000135","ARG_OF_PERICENTER":"91.0526","EPHEMERIS_TYPE":"0","RA_OF_ASC_NODE":"123.4890","OBJECT_NAME":"STARLINK-2343","NORAD_CAT_ID":"47884","TLE_LINE2":"2 47884  53.0546 123.4890 0001464  91.0526 269.0630 15.06400357 87968","SITE":"AFETR","PERIAPSIS":"546.199","BSTAR":"0.00002794200000","TIME_SYSTEM":"UTC","GP_ID":"214504229","TLE_LINE1":"1 47884U 21021AA  22281.83066051  .00000135  00000-0  27942-4 0  9998","MEAN_MOTION":"15.06400357","PERIOD":"95.592","ELEMENT_SET_NO":"999","CLASSIFICATION_TYPE":"U","APOAPSIS":"548.226","MEAN_ELEMENT_THEORY":"SGP4","EPOCH":"2022-10-08T19:56:09.068064","ECCENTRICITY":"0.00014640","LAUNCH_DATE":"2021-03-14","OBJECT_ID":"2021-021AA","CENTER_NAME":"EARTH","MEAN_ANOMALY":"269.0630","RCS_SIZE":"LARGE","MEAN_MOTION_DDOT":"0.0000000000000","REF_FRAME":"TEME","REV_AT_EPOCH":"8796","SEMIMAJOR_AXIS":"6925.347","FILE":"3596607"},{"APOAPSIS":"548.235","CLASSIFICATION_TYPE":"U","EPOCH":"2022-10-08T19:47:31.636608","MEAN_ELEMENT_THEORY":"SGP4","MEAN_MOTION":"15.06397429","TLE_LINE1":"1 47885U 21021AB  22281.82467172 -.00000006  00000-0  18477-4 0  9998","PERIOD":"95.592","ELEMENT_SET_NO":"999","SEMIMAJOR_AXIS":"6925.356","REV_AT_EPOCH":"8805","REF_FRAME":"TEME","MEAN_MOTION_DDOT":"0.0000000000000","FILE":"3596607","LAUNCH_DATE":"2021-03-14","ECCENTRICITY":"0.00014640","RCS_SIZE":"LARGE","CENTER_NAME":"EARTH","OBJECT_ID":"2021-021AB","MEAN_ANOMALY":"245.3523","EPHEMERIS_TYPE":"0","OBJECT_NAME":"STARLINK-2344","RA_OF_ASC_NODE":"128.5101","INCLINATION":"53.0543","MEAN_MOTION_DOT":"-0.00000006","COUNTRY_CODE":"US","ARG_OF_PERICENTER":"114.7618","DECAY_DATE":null,"OBJECT_TYPE":"PAYLOAD","GP_ID":"214504981","BSTAR":"0.00001847700000","TIME_SYSTEM":"UTC","TLE_LINE2":"2 47885  53.0543 128.5101 0001464 114.7618 245.3523 15.06397429 88056","NORAD_CAT_ID":"47885","PERIAPSIS":"546.208","SITE":"AFETR"},{"GP_ID":"214505232","TIME_SYSTEM":"UTC","BSTAR":"0.00014272000000","PERIAPSIS":"546.373","SITE":"AFETR","TLE_LINE2":"2 47886  53.0534 118.5122 0001190  94.2442 265.8683 15.06405398 88040","NORAD_CAT_ID":"47886","OBJECT_NAME":"STARLINK-2345","RA_OF_ASC_NODE":"118.5122","EPHEMERIS_TYPE":"0","MEAN_MOTION_DOT":"0.00001845","COUNTRY_CODE":"US","ARG_OF_PERICENTER":"94.2442","OBJECT_TYPE":"PAYLOAD","DECAY_DATE":null,"INCLINATION":"53.0534","FILE":"3596607","SEMIMAJOR_AXIS":"6925.332","REV_AT_EPOCH":"8804","REF_FRAME":"TEME","MEAN_MOTION_DDOT":"0.0000000000000","RCS_SIZE":"LARGE","MEAN_ANOMALY":"265.8683","CENTER_NAME":"EARTH","OBJECT_ID":"2021-021AC","LAUNCH_DATE":"2021-03-14","ECCENTRICITY":"0.00011900","EPOCH":"2022-10-08T19:47:28.805280","MEAN_ELEMENT_THEORY":"SGP4","APOAPSIS":"548.021","CLASSIFICATION_TYPE":"U","ELEMENT_SET_NO":"999","PERIOD":"95.592","MEAN_MOTION":"15.06405398","TLE_LINE1":"1 47886U 21021AC  22281.82463895  .00001845  00000-0  14272-3 0  9996"},{"EPOCH":"2022-10-08T20:22:41.293056","MEAN_ELEMENT_THEORY":"SGP4","APOAPSIS":"548.100","CLASSIFICATION_TYPE":"U","PERIOD":"95.592","ELEMENT_SET_NO":"999","MEAN_MOTION":"15.06395894","TLE_LINE1":"1 47887U 21021AD  22281.84908904  .00000600  00000-0  59175-4 0  9994","FILE":"3596607","SEMIMAJOR_AXIS":"6925.361","REV_AT_EPOCH":"8797","REF_FRAME":"TEME","MEAN_MOTION_DDOT":"0.0000000000000","RCS_SIZE":"LARGE","MEAN_ANOMALY":"260.3674","CENTER_NAME":"EARTH","OBJECT_ID":"2021-021AD","LAUNCH_DATE":"2021-03-14","ECCENTRICITY":"0.00012620","OBJECT_NAME":"STARLINK-2346","RA_OF_ASC_NODE":"123.3819","EPHEMERIS_TYPE":"0","MEAN_MOTION_DOT":"0.00000600","COUNTRY_CODE":"US","ARG_OF_PERICENTER":"99.7458","OBJECT_TYPE":"PAYLOAD","DECAY_DATE":null,"INCLINATION":"53.0543","GP_ID":"214505982","BSTAR":"0.00005917500000","TIME_SYSTEM":"UTC","PERIAPSIS":"546.352","SITE":"AFETR","TLE_LINE2":"2 47887  53.0543 123.3819 0001262  99.7458 260.3674 15.06395894 87975","NORAD_CAT_ID":"47887"},{"OBJECT_NAME":"STARLINK-2348","RA_OF_ASC_NODE":"113.5936","EPHEMERIS_TYPE":"0","COUNTRY_CODE":"US","ARG_OF_PERICENTER":"88.8899","MEAN_MOTION_DOT":"0.00000208","DECAY_DATE":null,"OBJECT_TYPE":"PAYLOAD","INCLINATION":"53.0532","GP_ID":"214504729","TIME_SYSTEM":"UTC","BSTAR":"0.00003288100000","PERIAPSIS":"546.374","SITE":"AFETR","TLE_LINE2":"2 47888  53.0532 113.5936 0001220  88.8899 271.2230 15.06398391 88118","NORAD_CAT_ID":"47888","EPOCH":"2022-10-08T19:20:18.915072","MEAN_ELEMENT_THEORY":"SGP4","APOAPSIS":"548.063","CLASSIFICATION_TYPE":"U","PERIOD":"95.592","ELEMENT_SET_NO":"999","MEAN_MOTION":"15.06398391","TLE_LINE1":"1 47888U 21021AE  22281.80577448  .00000208  00000-0  32881-4 0  9995","FILE":"3596607","SEMIMAJOR_AXIS":"6925.353","REV_AT_EPOCH":"8811","REF_FRAME":"TEME","MEAN_MOTION_DDOT":"0.0000000000000","RCS_SIZE":"LARGE","OBJECT_ID":"2021-021AE","MEAN_ANOMALY":"271.2230","CENTER_NAME":"EARTH","LAUNCH_DATE":"2021-03-14","ECCENTRICITY":"0.00012200"},{"EPHEMERIS_TYPE":"0","OBJECT_NAME":"STARLINK-2349","RA_OF_ASC_NODE":"113.5539","INCLINATION":"53.0556","MEAN_MOTION_DOT":"-0.00001455","COUNTRY_CODE":"US","ARG_OF_PERICENTER":"85.0352","DECAY_DATE":null,"OBJECT_TYPE":"PAYLOAD","GP_ID":"214504482","TIME_SYSTEM":"UTC","BSTAR":"-0.00007882700000","TLE_LINE2":"2 47889  53.0556 113.5539 0001295  85.0352 275.0785 15.06399874 88168","NORAD_CAT_ID":"47889","PERIAPSIS":"546.317","SITE":"AFETR","APOAPSIS":"548.111","CLASSIFICATION_TYPE":"U","EPOCH":"2022-10-08T19:36:14.859360","MEAN_ELEMENT_THEORY":"SGP4","MEAN_MOTION":"15.06399874","TLE_LINE1":"1 47889U 21021AF  22281.81683865 -.00001455  00000-0 -78827-4 0  9995","ELEMENT_SET_NO":"999","PERIOD":"95.592","SEMIMAJOR_AXIS":"6925.349","REV_AT_EPOCH":"8816","REF_FRAME":"TEME","MEAN_MOTION_DDOT":"0.0000000000000","FILE":"3596607","LAUNCH_DATE":"2021-03-14","ECCENTRICITY":"0.00012950","RCS_SIZE":"LARGE","CENTER_NAME":"EARTH","OBJECT_ID":"2021-021AF","MEAN_ANOMALY":"275.0785"},{"DECAY_DATE":null,"OBJECT_TYPE":"PAYLOAD","MEAN_MOTION_DOT":"0.00127799","COUNTRY_CODE":"US","ARG_OF_PERICENTER":"281.6051","INCLINATION":"53.0517","RA_OF_ASC_NODE":"33.6583","OBJECT_NAME":"STARLINK-2350","EPHEMERIS_TYPE":"0","SITE":"AFETR","PERIAPSIS":"366.569","NORAD_CAT_ID":"47890","TLE_LINE2":"2 47890  53.0517  33.6583 0008767 281.6051  78.3979 15.65262010 88276","BSTAR":"0.00124780000000","TIME_SYSTEM":"UTC","GP_ID":"214505732","ELEMENT_SET_NO":"999","PERIOD":"91.997","TLE_LINE1":"1 47890U 21021AG  22281.58461185  .00127799  00000-0  12478-2 0  9996","MEAN_MOTION":"15.65262010","MEAN_ELEMENT_THEORY":"SGP4","EPOCH":"2022-10-08T14:01:50.463840","CLASSIFICATION_TYPE":"U","APOAPSIS":"378.406","CENTER_NAME":"EARTH","OBJECT_ID":"2021-021AG","MEAN_ANOMALY":"78.3979","RCS_SIZE":"LARGE","ECCENTRICITY":"0.00087670","LAUNCH_DATE":"2021-03-14","FILE":"3596607","MEAN_MOTION_DDOT":"0.0000000000000","REF_FRAME":"TEME","REV_AT_EPOCH":"8827","SEMIMAJOR_AXIS":"6750.622"},{"APOAPSIS":"548.094","CLASSIFICATION_TYPE":"U","EPOCH":"2022-10-08T19:45:31.667616","MEAN_ELEMENT_THEORY":"SGP4","MEAN_MOTION":"15.06407552","TLE_LINE1":"1 47891U 21021AH  22281.82328319  .00000732  00000-0  68039-4 0  9998","ELEMENT_SET_NO":"999","PERIOD":"95.592","SEMIMAJOR_AXIS":"6925.325","REV_AT_EPOCH":"8813","REF_FRAME":"TEME","MEAN_MOTION_DDOT":"0.0000000000000","FILE":"3596607","LAUNCH_DATE":"2021-03-14","ECCENTRICITY":"0.00013050","RCS_SIZE":"LARGE","OBJECT_ID":"2021-021AH","MEAN_ANOMALY":"239.0659","CENTER_NAME":"EARTH","EPHEMERIS_TYPE":"0","OBJECT_NAME":"STARLINK-2351","RA_OF_ASC_NODE":"123.5160","INCLINATION":"53.0548","COUNTRY_CODE":"US","ARG_OF_PERICENTER":"121.0458","MEAN_MOTION_DOT":"0.00000732","OBJECT_TYPE":"PAYLOAD","DECAY_DATE":null,"GP_ID":"214505483","BSTAR":"0.00006803900000","TIME_SYSTEM":"UTC","TLE_LINE2":"2 47891  53.0548 123.5160 0001305 121.0458 239.0659 15.06407552 88133","NORAD_CAT_ID":"47891","PERIAPSIS":"546.287","SITE":"AFETR"},{"SEMIMAJOR_AXIS":"6893.368","REV_AT_EPOCH":"8821","REF_FRAME":"TEME","MEAN_MOTION_DDOT":"0.0000000000000","FILE":"3596607","LAUNCH_DATE":"2021-03-14","ECCENTRICITY":"0.00016710","RCS_SIZE":"LARGE","CENTER_NAME":"EARTH","MEAN_ANOMALY":"313.5046","OBJECT_ID":"2021-021AJ","APOAPSIS":"516.385","CLASSIFICATION_TYPE":"U","EPOCH":"2022-10-08T19:55:12.419040","MEAN_ELEMENT_THEORY":"SGP4","MEAN_MOTION":"15.16895084","TLE_LINE1":"1 47892U 21021AJ  22281.83000485 -.00000535  00000-0 -11139-4 0  9993","ELEMENT_SET_NO":"999","PERIOD":"94.931","GP_ID":"214504230","TIME_SYSTEM":"UTC","BSTAR":"-0.00001113900000","TLE_LINE2":"2 47892  53.0537 106.6301 0001671  46.6087 313.5046 15.16895084 88216","NORAD_CAT_ID":"47892","PERIAPSIS":"514.081","SITE":"AFETR","EPHEMERIS_TYPE":"0","OBJECT_NAME":"STARLINK-2352","RA_OF_ASC_NODE":"106.6301","INCLINATION":"53.0537","COUNTRY_CODE":"US","ARG_OF_PERICENTER":"46.6087","MEAN_MOTION_DOT":"-0.00000535","DECAY_DATE":null,"OBJECT_TYPE":"PAYLOAD"},{"TLE_LINE1":"1 47894U 21021AL  22281.84633101 -.00000622  00000-0 -22845-4 0  9996","MEAN_MOTION":"15.06390925","ELEMENT_SET_NO":"999","PERIOD":"95.593","APOAPSIS":"548.146","CLASSIFICATION_TYPE":"U","MEAN_ELEMENT_THEORY":"SGP4","EPOCH":"2022-10-08T20:18:42.999264","ECCENTRICITY":"0.00013060","LAUNCH_DATE":"2021-03-14","OBJECT_ID":"2021-021AL","CENTER_NAME":"EARTH","MEAN_ANOMALY":"257.9900","RCS_SIZE":"LARGE","REF_FRAME":"TEME","MEAN_MOTION_DDOT":"0.0000000000000","SEMIMAJOR_AXIS":"6925.376","REV_AT_EPOCH":"8806","FILE":"3596607","INCLINATION":"53.0535","OBJECT_TYPE":"PAYLOAD","DECAY_DATE":null,"MEAN_MOTION_DOT":"-0.00000622","COUNTRY_CODE":"US","ARG_OF_PERICENTER":"102.1236","EPHEMERIS_TYPE":"0","RA_OF_ASC_NODE":"113.4140","OBJECT_NAME":"STARLINK-2354","NORAD_CAT_ID":"47894","TLE_LINE2":"2 47894  53.0535 113.4140 0001306 102.1236 257.9900 15.06390925 88068","SITE":"AFETR","PERIAPSIS":"546.337","BSTAR":"-0.00002284500000","TIME_SYSTEM":"UTC","GP_ID":"214504982"}];
